[{"OBJECT_NAME":"ONEWEB-0294","OBJECT_ID":"2021-075J","EPOCH":"2026-04-21T23:47:22.437024","MEAN_MOTION":13.12442668,"ECCENTRICITY":0.0001708,"INCLINATION":87.9001,"RA_OF_ASC_NODE":1.8238,"ARG_OF_PERICENTER":69.0504,"MEAN_ANOMALY":291.0807,"EPHEMERIS_TYPE":0,"CLASSIFICATION_TYPE":"U","NORAD_CAT_ID":49083,"ELEMENT_SET_NO":999,"REV_AT_EPOCH":22720,"BSTAR":0.0012826,"MEAN_MOTION_DOT":4.74e-06,"MEAN_MOTION_DDOT":0.0},{"OBJECT_NAME":"ONEWEB-0295","OBJECT_ID":"2021-075K","EPOCH":"2026-04-22T03:31:28.107840","MEAN_MOTION":13.1764941,"ECCENTRICITY":0.0001477,"INCLINATION":87.9177,"RA_OF_ASC_NODE":17.0036,"ARG_OF_PERICENTER":81.0382,"MEAN_ANOMALY":279.0917,"EPHEMERIS_TYPE":0,"CLASSIFICATION_TYPE":"U","NORAD_CAT_ID":49084,"ELEMENT_SET_NO":999,"REV_AT_EPOCH":22621,"BSTAR":1.6619e-05,"MEAN_MOTION_DOT":1.9e-07,"MEAN_MOTION_DDOT":0.0},{"OBJECT_NAME":"ONEWEB-0296","OBJECT_ID":"2021-075L","EPOCH":"2026-04-22T02:57:38.342880","MEAN_MOTION":13.12449766,"ECCENTRICITY":9.31e-05,"INCLINATION":87.9001,"RA_OF_ASC_NODE":1.8026,"ARG_OF_PERICENTER":74.9642,"MEAN_ANOMALY":285.159,"EPHEMERIS_TYPE":0,"CLASSIFICATION_TYPE":"U","NORAD_CAT_ID":49085,"ELEMENT_SET_NO":999,"REV_AT_EPOCH":22722,"BSTAR":-0.0029584,"MEAN_MOTION_DOT":-1.052e-05,"MEAN_MOTION_DDOT":0.0},{"OBJECT_NAME":"ONEWEB-0297","OBJECT_ID":"2021-075M","EPOCH":"2026-04-22T05:31:20.582112","MEAN_MOTION":13.12442407,"ECCENTRICITY":0.0001644,"INCLINATION":87.8991,"RA_OF_ASC_NODE":1.8003,"ARG_OF_PERICENTER":81.5756,"MEAN_ANOMALY":278.5559,"EPHEMERIS_TYPE":0,"CLASSIFICATION_TYPE":"U","NORAD_CAT_ID":49086,"ELEMENT_SET_NO":999,"REV_AT_EPOCH":22784,"BSTAR":0.0008168800000000001,"MEAN_MOTION_DOT":3.07e-06,"MEAN_MOTION_DDOT":0.0},{"OBJECT_NAME":"ONEWEB-0298","OBJECT_ID":"2021-075N","EPOCH":"2026-04-22T05:27:05.479200","MEAN_MOTION":13.17651651,"ECCENTRICITY":0.0001851,"INCLINATION":87.9183,"RA_OF_ASC_NODE":16.9853,"ARG_OF_PERICENTER":84.0955,"MEAN_ANOMALY":276.0388,"EPHEMERIS_TYPE":0,"CLASSIFICATION_TYPE":"U","NORAD_CAT_ID":49087,"ELEMENT_SET_NO":999,"REV_AT_EPOCH":22625,"BSTAR":0.00015882,"MEAN_MOTION_DOT":7.5e-07,"MEAN_MOTION_DDOT":0.0},{"OBJECT_NAME":"ONEWEB-0299","OBJECT_ID":"2021-075P","EPOCH":"2026-04-22T05:29:19.196160","MEAN_MOTION":13.17648338,"ECCENTRICITY":0.000167,"INCLINATION":87.9197,"RA_OF_ASC_NODE":16.9602,"ARG_OF_PERICENTER":82.608,"MEAN_ANOMALY":277.5241,"EPHEMERIS_TYPE":0,"CLASSIFICATION_TYPE":"U","NORAD_CAT_ID":49088,"ELEMENT_SET_NO":999,"REV_AT_EPOCH":22623,"BSTAR":0.00031204,"MEAN_MOTION_DOT":1.34e-06,"MEAN_MOTION_DDOT":0.0},{"OBJECT_NAME":"ONEWEB-0300","OBJECT_ID":"2021-075Q","EPOCH":"2026-04-22T05:20:22.176960","MEAN_MOTION":13.12443604,"ECCENTRICITY":0.0001986,"INCLINATION":87.9003,"RA_OF_ASC_NODE":1.7748,"ARG_OF_PERICENTER":90.635,"MEAN_ANOMALY":269.5007,"EPHEMERIS_TYPE":0,"CLASSIFICATION_TYPE":"U","NORAD_CAT_ID":49089,"ELEMENT_SET_NO":999,"REV_AT_EPOCH":22786,"BSTAR":0.0012086,"MEAN_MOTION_DOT":4.48e-06,"MEAN_MOTION_DDOT":0.0},{"OBJECT_NAME":"ONEWEB-0301","OBJECT_ID":"2021-075R","EPOCH":"2026-04-22T03:07:25.063680","MEAN_MOTION":13.12444015,"ECCENTRICITY":0.0002079,"INCLINATION":87.9,"RA_OF_ASC_NODE":1.7926,"ARG_OF_PERICENTER":87.1105,"MEAN_ANOMALY":273.0261,"EPHEMERIS_TYPE":0,"CLASSIFICATION_TYPE":"U","NORAD_CAT_ID":49090,"ELEMENT_SET_NO":999,"REV_AT_EPOCH":22721,"BSTAR":0.00071356,"MEAN_MOTION_DOT":2.69e-06,"MEAN_MOTION_DDOT":0.0},{"OBJECT_NAME":"ONEWEB-0302","OBJECT_ID":"2021-075S","EPOCH":"2026-04-22T02:47:52.869696","MEAN_MOTION":13.12443342,"ECCENTRICITY":0.0001595,"INCLINATION":87.9002,"RA_OF_ASC_NODE":1.8053,"ARG_OF_PERICENTER":71.1049,"MEAN_ANOMALY":289.0252,"EPHEMERIS_TYPE":0,"CLASSIFICATION_TYPE":"U","NORAD_CAT_ID":49091,"ELEMENT_SET_NO":999,"REV_AT_EPOCH":22719,"BSTAR":-0.0005954700000000001,"MEAN_MOTION_DOT":-2.02e-06,"MEAN_MOTION_DDOT":0.0},{"OBJECT_NAME":"ONEWEB-0304","OBJECT_ID":"2021-075T","EPOCH":"2026-04-22T03:03:31.755168","MEAN_MOTION":13.17647814,"ECCENTRICITY":0.0001652,"INCLINATION":87.9186,"RA_OF_ASC_NODE":17.0078,"ARG_OF_PERICENTER":81.2682,"MEAN_ANOMALY":278.8636,"EPHEMERIS_TYPE":0,"CLASSIFICATION_TYPE":"U","NORAD_CAT_ID":49092,"ELEMENT_SET_NO":999,"REV_AT_EPOCH":22619,"BSTAR":0.00010741,"MEAN_MOTION_DOT":5.5e-07,"MEAN_MOTION_DDOT":0.0},{"OBJECT_NAME":"ONEWEB-0305","OBJECT_ID":"2021-075U","EPOCH":"2026-04-22T04:43:08.635872","MEAN_MOTION":13.17647872,"ECCENTRICITY":0.0001486,"INCLINATION":87.9189,"RA_OF_ASC_NODE":16.9745,"ARG_OF_PERICENTER":88.3956,"MEAN_ANOMALY":271.7346,"EPHEMERIS_TYPE":0,"CLASSIFICATION_TYPE":"U","NORAD_CAT_ID":49093,"ELEMENT_SET_NO":999,"REV_AT_EPOCH":22623,"BSTAR":5.5020000000000005e-05,"MEAN_MOTION_DOT":3.4e-07,"MEAN_MOTION_DDOT":0.0},{"OBJECT_NAME":"ONEWEB-0308","OBJECT_ID":"2021-075V","EPOCH":"2026-04-22T02:38:07.186560","MEAN_MOTION":13.12443198,"ECCENTRICITY":0.0001779,"INCLINATION":87.9002,"RA_OF_ASC_NODE":1.7992,"ARG_OF_PERICENTER":79.781,"MEAN_ANOMALY":280.352,"EPHEMERIS_TYPE":0,"CLASSIFICATION_TYPE":"U","NORAD_CAT_ID":49094,"ELEMENT_SET_NO":999,"REV_AT_EPOCH":22720,"BSTAR":-0.0009089300000000001,"MEAN_MOTION_DOT":-3.14e-06,"MEAN_MOTION_DDOT":0.0},{"OBJECT_NAME":"ONEWEB-0309","OBJECT_ID":"2021-075W","EPOCH":"2026-04-22T02:58:39.013824","MEAN_MOTION":13.17651638,"ECCENTRICITY":0.0001569,"INCLINATION":87.9186,"RA_OF_ASC_NODE":17.0018,"ARG_OF_PERICENTER":66.8838,"MEAN_ANOMALY":293.2459,"EPHEMERIS_TYPE":0,"CLASSIFICATION_TYPE":"U","NORAD_CAT_ID":49095,"ELEMENT_SET_NO":999,"REV_AT_EPOCH":22619,"BSTAR":-6.113100000000001e-05,"MEAN_MOTION_DOT":-1.1e-07,"MEAN_MOTION_DDOT":0.0},{"OBJECT_NAME":"ONEWEB-0310","OBJECT_ID":"2021-075X","EPOCH":"2026-04-22T03:00:05.500224","MEAN_MOTION":13.12444628,"ECCENTRICITY":0.0001792,"INCLINATION":87.8991,"RA_OF_ASC_NODE":1.823,"ARG_OF_PERICENTER":79.394,"MEAN_ANOMALY":280.7391,"EPHEMERIS_TYPE":0,"CLASSIFICATION_TYPE":"U","NORAD_CAT_ID":49096,"ELEMENT_SET_NO":999,"REV_AT_EPOCH":22783,"BSTAR":9.6637e-05,"MEAN_MOTION_DOT":4.7e-07,"MEAN_MOTION_DDOT":0.0},{"OBJECT_NAME":"ONEWEB-0311","OBJECT_ID":"2021-075Y","EPOCH":"2026-04-22T03:08:23.167680","MEAN_MOTION":13.17648331,"ECCENTRICITY":0.0001597,"INCLINATION":87.9194,"RA_OF_ASC_NODE":16.9973,"ARG_OF_PERICENTER":93.4671,"MEAN_ANOMALY":266.6644,"EPHEMERIS_TYPE":0,"CLASSIFICATION_TYPE":"U","NORAD_CAT_ID":49097,"ELEMENT_SET_NO":999,"REV_AT_EPOCH":22624,"BSTAR":-3.0357e-05,"MEAN_MOTION_DOT":1e-08,"MEAN_MOTION_DDOT":0.0},{"OBJECT_NAME":"ONEWEB-0312","OBJECT_ID":"2021-075Z","EPOCH":"2026-04-21T23:51:32.423328","MEAN_MOTION":13.17648267,"ECCENTRICITY":0.0001575,"INCLINATION":87.9184,"RA_OF_ASC_NODE":17.0384,"ARG_OF_PERICENTER":78.7909,"MEAN_ANOMALY":281.34,"EPHEMERIS_TYPE":0,"CLASSIFICATION_TYPE":"U","NORAD_CAT_ID":49098,"ELEMENT_SET_NO":999,"REV_AT_EPOCH":22620,"BSTAR":0.0004964100000000001,"MEAN_MOTION_DOT":2.06e-06,"MEAN_MOTION_DDOT":0.0}]