ONEWEB-0294             
1 49083U 21075J   26111.99123191  .00000474  00000+0  12826-2 0  9990
2 49083  87.9001   1.8238 0001708  69.0504 291.0807 13.12442668227200
ONEWEB-0295             
1 49084U 21075K   26112.14685310  .00000019  00000+0  16619-4 0  9996
2 49084  87.9177  17.0036 0001477  81.0382 279.0917 13.17649410226218
ONEWEB-0296             
1 49085U 21075L   26112.12336045 -.00001052  00000+0 -29584-2 0  9996
2 49085  87.9001   1.8026 0000931  74.9642 285.1590 13.12449766227223
ONEWEB-0297             
1 49086U 21075M   26112.23009933  .00000307  00000+0  81688-3 0  9996
2 49086  87.8991   1.8003 0001644  81.5756 278.5559 13.12442407227842
ONEWEB-0298             
1 49087U 21075N   26112.22714675  .00000075  00000+0  15882-3 0  9997
2 49087  87.9183  16.9853 0001851  84.0955 276.0388 13.17651651226251
ONEWEB-0299             
1 49088U 21075P   26112.22869440  .00000134  00000+0  31204-3 0  9991
2 49088  87.9197  16.9602 0001670  82.6080 277.5241 13.17648338226231
ONEWEB-0300             
1 49089U 21075Q   26112.22247890  .00000448  00000+0  12086-2 0  9995
2 49089  87.9003   1.7748 0001986  90.6350 269.5007 13.12443604227865
ONEWEB-0301             
1 49090U 21075R   26112.13015120  .00000269  00000+0  71356-3 0  9993
2 49090  87.9000   1.7926 0002079  87.1105 273.0261 13.12444015227213
ONEWEB-0302             
1 49091U 21075S   26112.11658414 -.00000202  00000+0 -59547-3 0  9998
2 49091  87.9002   1.8053 0001595  71.1049 289.0252 13.12443342227196
ONEWEB-0304             
1 49092U 21075T   26112.12745087  .00000055  00000+0  10741-3 0  9990
2 49092  87.9186  17.0078 0001652  81.2682 278.8636 13.17647814226191
ONEWEB-0305             
1 49093U 21075U   26112.19662773  .00000034  00000+0  55020-4 0  9995
2 49093  87.9189  16.9745 0001486  88.3956 271.7346 13.17647872226230
ONEWEB-0308             
1 49094U 21075V   26112.10980540 -.00000314  00000+0 -90893-3 0  9991
2 49094  87.9002   1.7992 0001779  79.7810 280.3520 13.12443198227207
ONEWEB-0309             
1 49095U 21075W   26112.12406266 -.00000011  00000+0 -61131-4 0  9990
2 49095  87.9186  17.0018 0001569  66.8838 293.2459 13.17651638226190
ONEWEB-0310             
1 49096U 21075X   26112.12506366  .00000047  00000+0  96637-4 0  9999
2 49096  87.8991   1.8230 0001792  79.3940 280.7391 13.12444628227834
ONEWEB-0311             
1 49097U 21075Y   26112.13082370  .00000001  00000+0 -30357-4 0  9993
2 49097  87.9194  16.9973 0001597  93.4671 266.6644 13.17648331226243
ONEWEB-0312             
1 49098U 21075Z   26111.99412527  .00000206  00000+0  49641-3 0  9999
2 49098  87.9184  17.0384 0001575  78.7909 281.3400 13.17648267226205
